     2.100          NAVIGATION                              RINEX VERSION / TYPE
fic2rin                                 12/16/2017 00:16:31 PGM / RUN BY / DATE
                                                            END OF HEADER
 8 17 12 15 18  0  0.0 -.842162407935D-04 -.136424205266D-11  .000000000000D+00
     .550000000000D+02 -.119187500000D+03  .413231498465D-08  .284075989285D+01
    -.612810254097D-05  .302217015997D-02  .740587711334D-05  .515373870087D+04
     .496800000000D+06  .242143869400D-07 -.807211707082D+00  .745058059692D-08
     .968330033210D+00  .240250000000D+03 -.621899455969D+00 -.790532928870D-08
    -.190365072327D-09  .100000000000D+01  .197900000000D+04  .000000000000D+00
     .240000000000D+01  .000000000000D+00  .558793544769D-08  .550000000000D+02
     .489606000000D+06  .400000000000D+01
 9 17 12 15 18  0  0.0  .483438838273D-03  .409272615798D-11  .000000000000D+00
     .400000000000D+01 -.151875000000D+02  .470769609444D-08  .261557058101D+01
    -.709667801857D-06  .110091117676D-02  .972487032413D-05  .515371970749D+04
     .496800000000D+06  .000000000000D+00  .233414149169D+01 -.391155481339D-07
     .952901613457D+00  .185781250000D+03  .172471060354D+01 -.799676166865D-08
    -.508235455761D-09  .100000000000D+01  .197900000000D+04  .000000000000D+00
     .240000000000D+01  .000000000000D+00  .931322574615D-09  .400000000000D+01
     .489606000000D+06  .400000000000D+01
10 17 12 15 18  0  0.0  .129938125610D-03  .670752342558D-11  .000000000000D+00
     .590000000000D+02 -.387500000000D+01  .497556439509D-08 -.182619511055D+01
    -.312924385071D-06  .304982007947D-02  .511668622494D-05  .515365763283D+04
     .496800000000D+06  .111758708954D-07  .129539572977D+01 -.260770320892D-07
     .960103183191D+00  .280906250000D+03 -.288851546962D+01 -.816426864599D-08
     .105004373854D-09  .100000000000D+01  .197900000000D+04  .000000000000D+00
     .240000000000D+01  .000000000000D+00  .186264514923D-08  .590000000000D+02
     .489606000000D+06  .400000000000D+01
11 17 12 15 18  0  0.0 -.730715692043D-03 -.147792889038D-11  .000000000000D+00
     .160000000000D+02 -.538750000000D+02  .564880672405D-08 -.509506539381D+00
    -.287592411041D-05  .168208836112D-01  .105425715446D-04  .515375005531D+04
     .496800000000D+06 -.214204192162D-06 -.159481502199D+00  .409781932831D-07
     .903746607782D+00  .150656250000D+03  .172675509300D+01 -.875715048475D-08
     .394659296287D-09  .100000000000D+01  .197900000000D+04  .000000000000D+00
     .240000000000D+01  .000000000000D+00 -.121071934700D-07  .160000000000D+02
     .489606000000D+06  .400000000000D+01
12 17 12 15 18  0  0.0  .360236037523D-03 -.181898940355D-11  .000000000000D+00
     .680000000000D+02 -.928125000000D+01  .422160441820D-08 -.109649470472D+01
    -.458210706711D-06  .667305733077D-02  .165589153767D-05  .515367238998D+04
     .496800000000D+06  .931322574615D-07 -.178231754966D+01  .968575477600D-07
     .987709494796D+00  .361125000000D+03  .909290291956D+00 -.819784147300D-08
    -.114647632677D-09  .100000000000D+01  .197900000000D+04  .000000000000D+00
     .240000000000D+01  .000000000000D+00 -.125728547573D-07  .680000000000D+02
     .489606000000D+06  .400000000000D+01
13 17 12 15 18  0  0.0 -.947802327573D-04 -.227373675443D-12  .000000000000D+00
     .830000000000D+02  .113437500000D+02  .429910764652D-08  .855235183658D+00
     .596046447754D-06  .366560020484D-02  .104475766420D-04  .515366314316D+04
     .496800000000D+06 -.558793544769D-07  .246336977486D+01 -.558793544769D-08
     .968904339738D+00  .183125000000D+03  .165438540898D+01 -.780032491484D-08
    -.437875382124D-09  .100000000000D+01  .197900000000D+04  .000000000000D+00
     .340000000000D+01  .000000000000D+00 -.116415321827D-07  .830000000000D+02
     .489606000000D+06  .400000000000D+01
14 17 12 15 18  0  0.0 -.906316563487D-04 -.682121026330D-12  .000000000000D+00
     .200000000000D+01  .190625000000D+01  .439625455022D-08  .202440193708D+01
    -.298023223877D-07  .924817868508D-02  .109281390905D-04  .515372312546D+04
     .496800000000D+06 -.372529029846D-08  .242257091776D+01 -.268220901489D-06
     .961400282432D+00  .167875000000D+03 -.195242957137D+01 -.774067957323D-08
    -.497163566001D-09  .100000000000D+01  .197900000000D+04  .000000000000D+00
     .240000000000D+01  .000000000000D+00 -.977888703346D-08  .200000000000D+01
     .489606000000D+06  .400000000000D+01
15 17 12 15 18  0  0.0 -.357400160283D-03  .000000000000D+00  .000000000000D+00
     .650000000000D+02 -.103437500000D+02  .539165315542D-08  .150029457558D+01
    -.368803739548D-06  .100562836742D-01  .961124897003D-05  .515366096497D+04
     .496800000000D+06 -.137835741043D-06  .226750650652D+01  .162050127983D-06
     .928412145372D+00  .180531250000D+03  .647365502332D+00 -.838034907518D-08
    -.586810157284D-09  .100000000000D+01  .197900000000D+04  .000000000000D+00
     .240000000000D+01  .000000000000D+00 -.107102096081D-07  .650000000000D+02
     .489606000000D+06  .400000000000D+01
16 17 12 15 18  0  0.0  .354051589966D-04 -.454747350886D-12  .000000000000D+00
     .550000000000D+02 -.275000000000D+01  .411802867528D-08 -.304250245779D+01
    -.212341547012D-06  .956167897675D-02  .139325857162D-05  .515355010796D+04
     .496800000000D+06 -.633299350739D-07 -.176341874590D+01 -.577419996262D-07
     .988152924284D+00  .369625000000D+03  .450271390308D+00 -.806676458455D-08
    -.503592405216D-10  .100000000000D+01  .197900000000D+04  .000000000000D+00
     .240000000000D+01  .000000000000D+00 -.107102096081D-07  .550000000000D+02
     .489606000000D+06  .400000000000D+01
17 17 12 15 18  0  0.0 -.137949828058D-03  .261479726760D-11  .000000000000D+00
     .300000000000D+01 -.110125000000D+03  .365765235590D-08  .230810926238D+01
    -.574626028538D-05  .122777697397D-01  .796653330326D-05  .515373717499D+04
     .496800000000D+06  .128522515297D-06 -.746910146320D+00 -.158324837685D-06
     .981719336802D+00  .234468750000D+03 -.181980003585D+01 -.752852787912D-08
    -.132148361653D-09  .100000000000D+01  .197900000000D+04  .000000000000D+00
     .240000000000D+01  .000000000000D+00 -.111758708954D-07  .300000000000D+01
     .489606000000D+06  .400000000000D+01
18 17 12 15 18  0  0.0  .633455812931D-03  .113686837722D-12  .000000000000D+00
     .600000000000D+01 -.843750000000D+00  .567237913450D-08 -.243235379913D+01
    -.279396772385D-07  .182373733260D-01  .420957803726D-05  .515363448334D+04
     .496800000000D+06  .229105353355D-06  .124595094343D+01  .707805156708D-07
     .925826273820D+00  .273937500000D+03 -.176621626074D+01 -.828891669522D-08
     .226080845746D-09  .100000000000D+01  .197900000000D+04  .000000000000D+00
     .240000000000D+01  .000000000000D+00 -.111758708954D-07  .600000000000D+01
     .489606000000D+06  .400000000000D+01
19 17 12 15 18  0  0.0 -.469742342830D-03  .227373675443D-11  .000000000000D+00
     .460000000000D+02 -.972500000000D+02  .386301805306D-08 -.982065530514D+00
    -.478699803352D-05  .976727239322D-02  .850297510624D-05  .515369559860D+04
     .496800000000D+06  .149011611938D-07 -.699551858594D+00  .208616256714D-06
     .979150572614D+00  .224375000000D+03  .110254448394D+01 -.784246952748D-08
    -.835749098019D-10  .100000000000D+01  .197900000000D+04  .000000000000D+00
     .240000000000D+01  .000000000000D+00 -.153668224812D-07  .460000000000D+02
     .489606000000D+06  .400000000000D+01
20 17 12 15 18  0  0.0  .495641026646D-03  .102318153949D-11  .000000000000D+00
     .200000000000D+01 -.168750000000D+01  .580309886522D-08  .126208040669D+01
    -.173225998878D-06  .463908549864D-02  .480562448502D-05  .515375494766D+04
     .496800000000D+06 -.316649675369D-07  .119487157289D+01 -.109896063805D-06
     .927267552416D+00  .269781250000D+03  .174105041248D+01 -.862928801591D-08
     .134291308058D-09  .100000000000D+01  .197900000000D+04  .000000000000D+00
     .240000000000D+01  .000000000000D+00 -.838190317154D-08  .200000000000D+01
     .489606000000D+06  .400000000000D+01
21 17 12 15 18  0  0.0 -.452219042927D-03  .397903932026D-11  .000000000000D+00
     .114000000000D+03  .750000000000D+01  .478055627221D-08 -.150791508994D+01
     .860542058945D-06  .241113976808D-01  .100992619991D-04  .515379994392D+04
     .496800000000D+06  .111758708954D-06  .206711873831D+00  .679865479469D-06
     .942322616457D+00  .173625000000D+03 -.161812923728D+01 -.806176437627D-08
     .549308595194D-09  .100000000000D+01  .197900000000D+04  .000000000000D+00
     .340000000000D+01  .000000000000D+00 -.977888703346D-08  .114000000000D+03
     .489606000000D+06  .400000000000D+01
22 17 12 15 18  0  0.0 -.223381910473D-03 -.128466126625D-10  .000000000000D+00
     .900000000000D+02  .234375000000D+01  .590346018853D-08  .168542248731D+01
    -.149011611938D-07  .714064028580D-02  .463612377644D-05  .515363566208D+04
     .496800000000D+06  .260770320892D-07  .124542567977D+01 -.206753611565D-06
     .923944926061D+00  .273093750000D+03 -.164355409080D+01 -.865178895317D-08
     .172864343351D-09  .100000000000D+01  .197900000000D+04  .000000000000D+00
     .340000000000D+01  .000000000000D+00 -.176951289177D-07  .900000000000D+02
     .489606000000D+06  .400000000000D+01
23 17 12 15 18  0  0.0 -.218990724534D-03 -.113686837722D-12  .000000000000D+00
     .300000000000D+01 -.132500000000D+02  .501449458811D-08  .980061247896D+00
    -.445172190666D-06  .118630484212D-01  .990368425846D-05  .515363183212D+04
     .496800000000D+06 -.132247805595D-06  .233405938687D+01  .875443220139D-07
     .943741294430D+00  .183000000000D+03 -.240955275648D+01 -.828427364468D-08
    -.642169606085D-09  .100000000000D+01  .197900000000D+04  .000000000000D+00
     .240000000000D+01  .000000000000D+00 -.204890966415D-07  .300000000000D+01
     .489606000000D+06  .400000000000D+01
